{
  "type": "FeatureCollection",
  "features": [
    {
      "type": "Feature",
      "properties": {
        "norad_id": 58647,
        "name": "TIANMU-1 13",
        "group": "weather",
        "lat": 61.87302724407713,
        "lon": -151.35792288750343,
        "alt_km": 487.6047093376392,
        "timestamp": "2025-12-21T03:56:50.501622+00:00",
        "meta_object_name": "TIANMU-1 13",
        "meta_object_id": "2023-205C",
        "meta_epoch": "2025-12-20T19:33:31.711968",
        "meta_mean_motion": 15.24617045,
        "meta_eccentricity": 0.0006304,
        "meta_inclination": 97.361,
        "meta_ra_of_asc_node": 14.3036,
        "meta_arg_of_pericenter": 231.0657,
        "meta_mean_anomaly": 129.0019,
        "meta_ephemeris_type": 0,
        "meta_classification_type": "U",
        "meta_norad_cat_id": 58647,
        "meta_element_set_no": 999,
        "meta_rev_at_epoch": 11030,
        "meta_bstar": 0.00017508,
        "meta_mean_motion_dot": 4.249e-05,
        "meta_mean_motion_ddot": 0,
        "tle_line1": "1 58647U 23205C   25354.81495037  .00004249  00000+0  17508-3 0  9990",
        "tle_line2": "2 58647  97.3610  14.3036 0006304 231.0657 129.0019 15.24617045110304"
      },
      "geometry": {
        "type": "Point",
        "coordinates": [
          -151.35792288750343,
          61.87302724407713
        ]
      }
    },
    {
      "type": "Feature",
      "properties": {
        "norad_id": 58648,
        "name": "TIANMU-1 14",
        "group": "weather",
        "lat": -27.602395271941607,
        "lon": -169.88398639634218,
        "alt_km": 493.58828439194895,
        "timestamp": "2025-12-21T03:56:50.501633+00:00",
        "meta_object_name": "TIANMU-1 14",
        "meta_object_id": "2023-205D",
        "meta_epoch": "2025-12-20T20:44:15.754272",
        "meta_mean_motion": 15.24601033,
        "meta_eccentricity": 0.0007051,
        "meta_inclination": 97.3542,
        "meta_ra_of_asc_node": 13.6931,
        "meta_arg_of_pericenter": 237.1242,
        "meta_mean_anomaly": 122.9318,
        "meta_ephemeris_type": 0,
        "meta_classification_type": "U",
        "meta_norad_cat_id": 58648,
        "meta_element_set_no": 999,
        "meta_rev_at_epoch": 11031,
        "meta_bstar": 0.0001786,
        "meta_mean_motion_dot": 4.335e-05,
        "meta_mean_motion_ddot": 0,
        "tle_line1": "1 58648U 23205D   25354.86407123  .00004335  00000+0  17860-3 0  9992",
        "tle_line2": "2 58648  97.3542  13.6931 0007051 237.1242 122.9318 15.24601033110317"
      },
      "geometry": {
        "type": "Point",
        "coordinates": [
          -169.88398639634218,
          -27.602395271941607
        ]
      }
    },
    {
      "type": "Feature",
      "properties": {
        "norad_id": 58660,
        "name": "TIANMU-1 19",
        "group": "weather",
        "lat": -24.544437725171687,
        "lon": -77.23526620876261,
        "alt_km": 484.45910230260415,
        "timestamp": "2025-12-21T03:56:50.501642+00:00",
        "meta_object_name": "TIANMU-1 19",
        "meta_object_id": "2023-208A",
        "meta_epoch": "2025-12-20T19:11:44.636352",
        "meta_mean_motion": 15.27984775,
        "meta_eccentricity": 0.0004491,
        "meta_inclination": 97.4396,
        "meta_ra_of_asc_node": 105.8218,
        "meta_arg_of_pericenter": 217.4799,
        "meta_mean_anomaly": 142.6128,
        "meta_ephemeris_type": 0,
        "meta_classification_type": "U",
        "meta_norad_cat_id": 58660,
        "meta_element_set_no": 999,
        "meta_rev_at_epoch": 11005,
        "meta_bstar": 0.00023841,
        "meta_mean_motion_dot": 6.436e-05,
        "meta_mean_motion_ddot": 0,
        "tle_line1": "1 58660U 23208A   25354.79982218  .00006436  00000+0  23841-3 0  9994",
        "tle_line2": "2 58660  97.4396 105.8218 0004491 217.4799 142.6128 15.27984775110053"
      },
      "geometry": {
        "type": "Point",
        "coordinates": [
          -77.23526620876261,
          -24.544437725171687
        ]
      }
    },
    {
      "type": "Feature",
      "properties": {
        "norad_id": 58661,
        "name": "TIANMU-1 20",
        "group": "weather",
        "lat": -44.59487191015254,
        "lon": 114.03751928000582,
        "alt_km": 484.58043553696916,
        "timestamp": "2025-12-21T03:56:50.501651+00:00",
        "meta_object_name": "TIANMU-1 20",
        "meta_object_id": "2023-208B",
        "meta_epoch": "2025-12-20T20:17:30.467328",
        "meta_mean_motion": 15.29176069,
        "meta_eccentricity": 0.0006588,
        "meta_inclination": 97.4332,
        "meta_ra_of_asc_node": 106.3229,
        "meta_arg_of_pericenter": 231.9114,
        "meta_mean_anomaly": 128.1532,
        "meta_ephemeris_type": 0,
        "meta_classification_type": "U",
        "meta_norad_cat_id": 58661,
        "meta_element_set_no": 999,
        "meta_rev_at_epoch": 11013,
        "meta_bstar": 0.00023057,
        "meta_mean_motion_dot": 6.456e-05,
        "meta_mean_motion_ddot": 0,
        "tle_line1": "1 58661U 23208B   25354.84549152  .00006456  00000+0  23057-3 0  9998",
        "tle_line2": "2 58661  97.4332 106.3229 0006588 231.9114 128.1532 15.29176069110131"
      },
      "geometry": {
        "type": "Point",
        "coordinates": [
          114.03751928000582,
          -44.59487191015254
        ]
      }
    },
    {
      "type": "Feature",
      "properties": {
        "norad_id": 58662,
        "name": "TIANMU-1 21",
        "group": "weather",
        "lat": 35.65850038998891,
        "lon": 103.20931097375066,
        "alt_km": 472.55935928132294,
        "timestamp": "2025-12-21T03:56:50.501660+00:00",
        "meta_object_name": "TIANMU-1 21",
        "meta_object_id": "2023-208C",
        "meta_epoch": "2025-12-20T19:57:03.855168",
        "meta_mean_motion": 15.31710906,
        "meta_eccentricity": 0.0006225,
        "meta_inclination": 97.4382,
        "meta_ra_of_asc_node": 108.2535,
        "meta_arg_of_pericenter": 226.188,
        "meta_mean_anomaly": 133.8847,
        "meta_ephemeris_type": 0,
        "meta_classification_type": "U",
        "meta_norad_cat_id": 58662,
        "meta_element_set_no": 999,
        "meta_rev_at_epoch": 11023,
        "meta_bstar": 0.00024584,
        "meta_mean_motion_dot": 7.453e-05,
        "meta_mean_motion_ddot": 0,
        "tle_line1": "1 58662U 23208C   25354.83129462  .00007453  00000+0  24584-3 0  9990",
        "tle_line2": "2 58662  97.4382 108.2535 0006225 226.1880 133.8847 15.31710906110232"
      },
      "geometry": {
        "type": "Point",
        "coordinates": [
          103.20931097375066,
          35.65850038998891
        ]
      }
    },
    {
      "type": "Feature",
      "properties": {
        "norad_id": 58663,
        "name": "TIANMU-1 22",
        "group": "weather",
        "lat": -18.202157870465516,
        "lon": -76.22151555515548,
        "alt_km": 486.36700404060866,
        "timestamp": "2025-12-21T03:56:50.501669+00:00",
        "meta_object_name": "TIANMU-1 22",
        "meta_object_id": "2023-208D",
        "meta_epoch": "2025-12-20T19:13:19.971840",
        "meta_mean_motion": 15.27729535,
        "meta_eccentricity": 0.0002759,
        "meta_inclination": 97.4389,
        "meta_ra_of_asc_node": 105.8782,
        "meta_arg_of_pericenter": 244.2482,
        "meta_mean_anomaly": 115.8473,
        "meta_ephemeris_type": 0,
        "meta_classification_type": "U",
        "meta_norad_cat_id": 58663,
        "meta_element_set_no": 999,
        "meta_rev_at_epoch": 11006,
        "meta_bstar": 0.000224,
        "meta_mean_motion_dot": 5.994e-05,
        "meta_mean_motion_ddot": 0,
        "tle_line1": "1 58663U 23208D   25354.80092560  .00005994  00000+0  22400-3 0  9999",
        "tle_line2": "2 58663  97.4389 105.8782 0002759 244.2482 115.8473 15.27729535110063"
      },
      "geometry": {
        "type": "Point",
        "coordinates": [
          -76.22151555515548,
          -18.202157870465516
        ]
      }
    },
    {
      "type": "Feature",
      "properties": {
        "norad_id": 58700,
        "name": "TIANMU-1 15",
        "group": "weather",
        "lat": -50.15503282939245,
        "lon": -12.434495011487298,
        "alt_km": 495.4759801436767,
        "timestamp": "2025-12-21T03:56:50.501679+00:00",
        "meta_object_name": "TIANMU-1 15",
        "meta_object_id": "2024-004A",
        "meta_epoch": "2025-12-20T20:38:13.225056",
        "meta_mean_motion": 15.2450453,
        "meta_eccentricity": 0.0005954,
        "meta_inclination": 97.4621,
        "meta_ra_of_asc_node": 176.2988,
        "meta_arg_of_pericenter": 255.549,
        "meta_mean_anomaly": 104.5086,
        "meta_ephemeris_type": 0,
        "meta_classification_type": "U",
        "meta_norad_cat_id": 58700,
        "meta_element_set_no": 999,
        "meta_rev_at_epoch": 10858,
        "meta_bstar": 0.00019378,
        "meta_mean_motion_dot": 4.693e-05,
        "meta_mean_motion_ddot": 0,
        "tle_line1": "1 58700U 24004A   25354.85987529  .00004693  00000+0  19378-3 0  9994",
        "tle_line2": "2 58700  97.4621 176.2988 0005954 255.5490 104.5086 15.24504530108580"
      },
      "geometry": {
        "type": "Point",
        "coordinates": [
          -12.434495011487298,
          -50.15503282939245
        ]
      }
    }
  ]
}